{"type":"FeatureCollection","features":[{"type":"Feature","id":"stlouis","properties":{"id":"stlouis","name":"St. Louis"},"geometry":{"type":"Polygon","coordinates":[[[-92.45644,48.41341],[-92.47546,48.41863],[-92.48202,48.4283],[-92.48936,48.43027],[-92.50748,48.44799],[-92.53696,48.44775],[-92.57655,48.4406],[-92.65623,48.43648],[-92.66352,48.44004],[-92.68812,48.44372],[-92.71269,48.46299],[-92.70853,48.47032],[-92.70926,48.47287],[-92.70119,48.48467],[-92.69868,48.49485],[-92.68577,48.49741],[-92.66148,48.49632],[-92.65411,48.5017],[-92.63711,48.49934],[-92.63066,48.50078],[-92.62702,48.50328],[-92.63192,48.50672],[-92.63088,48.50915],[-92.62508,48.51292],[-92.62693,48.51417],[-92.62553,48.5179],[-92.63489,48.54257],[-92.65786,48.54623],[-92.72842,48.53938],[-92.89451,48.59499],[-92.91008,48.5964],[-92.92956,48.60694],[-92.95002,48.60836],[-92.9498,48.63034],[-92.9548,48.63155],[-92.98458,48.62383],[-93.08857,48.62772],[-93.09152,48.43607],[-93.09226,48.41443],[-93.09348,48.41445],[-93.09519,48.32948],[-93.09497,48.24254],[-93.09803,48.24254],[-93.09655,48.06781],[-93.08912,48.06793],[-93.0873,48.00033],[-93.08812,47.97859],[-93.08094,47.97855],[-93.08083,47.87782],[-93.0838,47.82126],[-93.08205,47.72058],[-93.06151,47.72041],[-93.06444,47.62504],[-93.06288,47.59201],[-93.06369,47.54452],[-93.06518,47.50035],[-93.06876,47.45773],[-93.06964,47.40018],[-93.06667,47.37152],[-93.06461,47.37151],[-93.06449,47.37005],[-93.06601,47.29719],[-93.06514,47.19571],[-93.06626,47.10937],[-93.05601,47.10934],[-93.05553,47.09122],[-93.06134,46.76644],[-92.80866,46.76604],[-92.65918,46.76907],[-92.61781,46.76657],[-92.30168,46.76414],[-92.30133,46.66691],[-92.29287,46.66354],[-92.2913,46.66815],[-92.2874,46.66735],[-92.2862,46.66035],[-92.28391,46.65872],[-92.2744,46.65745],[-92.2706,46.65075],[-92.266,46.65105],[-92.2566,46.65875],[-92.25232,46.65708],[-92.2425,46.64925],[-92.2285,46.65295],[-92.2164,46.64985],[-92.2071,46.65195],[-92.2016,46.65665],[-92.2055,46.66475],[-92.2041,46.66695],[-92.1925,46.67675],[-92.18137,46.68025],[-92.17744,46.68351],[-92.17588,46.68647],[-92.17627,46.69048],[-92.18301,46.69566],[-92.1985,46.69615],[-92.2052,46.69835],[-92.2047,46.70405],[-92.1933,46.71125],[-92.1915,46.71625],[-92.1891,46.71755],[-92.1743,46.71725],[-92.1673,46.71995],[-92.1552,46.71595],[-92.14674,46.7158],[-92.14153,46.72529],[-92.14341,46.72816],[-92.1433,46.73465],[-92.1379,46.73955],[-92.1166,46.74865],[-92.0895,46.74925],[-92.034,46.70895],[-92.0203,46.70405],[-91.98135,46.7231],[-91.79634,46.79485],[-91.79437,46.93997],[-91.79461,47.11198],[-91.79244,47.11182],[-91.79259,47.28521],[-91.79172,47.37259],[-91.79058,47.37258],[-91.78936,47.40801],[-91.79001,47.50991],[-91.78886,47.54262],[-91.79047,47.60081],[-91.79644,47.66588],[-91.79944,47.75967],[-91.80014,47.83192],[-91.79711,47.91171],[-91.80007,48.05695],[-91.79826,48.20298],[-91.81413,48.20839],[-91.81546,48.21182],[-91.86437,48.20696],[-91.86757,48.21919],[-91.88433,48.22743],[-91.89311,48.23799],[-91.90583,48.23724],[-91.91488,48.23893],[-91.93759,48.23422],[-91.94209,48.23037],[-91.95126,48.23341],[-91.95836,48.23314],[-91.95978,48.23682],[-91.95706,48.23886],[-91.9583,48.24384],[-91.94961,48.24452],[-91.94804,48.24594],[-91.95405,48.24947],[-91.95411,48.25227],[-91.96999,48.25378],[-91.97247,48.2506],[-91.97041,48.24781],[-91.97565,48.24433],[-91.9774,48.24717],[-91.9806,48.24793],[-91.98916,48.26029],[-92.00653,48.26542],[-92.00727,48.28056],[-92.01203,48.287],[-92.01299,48.29745],[-92.00012,48.3211],[-92.0308,48.3257],[-92.03768,48.33307],[-92.04695,48.33478],[-92.04785,48.3436],[-92.04511,48.34574],[-92.04588,48.34785],[-92.04886,48.34858],[-92.05523,48.35937],[-92.07817,48.35803],[-92.08356,48.35372],[-92.14371,48.35603],[-92.1449,48.3657],[-92.16201,48.36331],[-92.17741,48.35715],[-92.17912,48.3549],[-92.17854,48.35181],[-92.19282,48.34872],[-92.19455,48.34876],[-92.19509,48.35046],[-92.2039,48.35185],[-92.20772,48.34789],[-92.20673,48.34565],[-92.21697,48.34497],[-92.22162,48.34886],[-92.26256,48.35492],[-92.28884,48.34282],[-92.29545,48.32386],[-92.30448,48.32284],[-92.30618,48.31625],[-92.29456,48.30623],[-92.30144,48.28831],[-92.29526,48.27625],[-92.29318,48.27599],[-92.29457,48.27122],[-92.29018,48.26506],[-92.27364,48.25652],[-92.26959,48.24819],[-92.2804,48.24437],[-92.31489,48.24051],[-92.33211,48.23391],[-92.33658,48.23566],[-92.34048,48.23402],[-92.34191,48.23171],[-92.35356,48.23008],[-92.36221,48.22268],[-92.36806,48.22408],[-92.36688,48.22228],[-92.36992,48.22029],[-92.37081,48.22382],[-92.37264,48.22354],[-92.37839,48.23034],[-92.37854,48.23523],[-92.38403,48.24031],[-92.38382,48.24457],[-92.38727,48.24434],[-92.38818,48.24644],[-92.38636,48.24751],[-92.38687,48.2492],[-92.3847,48.24919],[-92.3859,48.25134],[-92.39237,48.25117],[-92.39223,48.25305],[-92.3892,48.25369],[-92.39344,48.25758],[-92.39313,48.26003],[-92.40179,48.27138],[-92.41564,48.2951],[-92.42564,48.30463],[-92.43185,48.30518],[-92.43672,48.30891],[-92.46978,48.3521],[-92.47651,48.37192],[-92.45641,48.40111],[-92.45643,48.41209],[-92.45644,48.41341]]]}},{"type":"Feature","id":"anoka","properties":{"id":"anoka","name":"Anoka"},"geometry":{"type":"Polygon","coordinates":[[[-93.22784,45.10705],[-93.2277,45.12454],[-93.02053,45.12387],[-93.01842,45.37497],[-93.01957,45.41178],[-93.16292,45.41422],[-93.43934,45.41363],[-93.51008,45.41481],[-93.51266,45.2467],[-93.50059,45.24085],[-93.4969,45.23427],[-93.48548,45.22569],[-93.46765,45.2258],[-93.45764,45.2202],[-93.44226,45.21637],[-93.43374,45.21807],[-93.42593,45.21474],[-93.41204,45.19817],[-93.39404,45.19068],[-93.37544,45.17867],[-93.35884,45.17497],[-93.34624,45.16017],[-93.33057,45.15304],[-93.32314,45.14717],[-93.31155,45.14379],[-93.30832,45.13795],[-93.29714,45.12697],[-93.2948,45.11493],[-93.27833,45.10337],[-93.28023,45.08877],[-93.27903,45.08017],[-93.28523,45.05847],[-93.28083,45.04357],[-93.28343,45.03537],[-93.22694,45.03568],[-93.22782,45.10407],[-93.22784,45.10705]]]}},{"type":"Feature","id":"wright","properties":{"id":"wright","name":"Wright"},"geometry":{"type":"Polygon","coordinates":[[[-93.55232,45.22698],[-93.54781,45.22672],[-93.54264,45.2326],[-93.54007,45.23105],[-93.53558,45.23139],[-93.53411,45.23061],[-93.53216,45.2238],[-93.52869,45.22244],[-93.52564,45.22497],[-93.52664,45.22897],[-93.5218,45.23248],[-93.52054,45.23766],[-93.51468,45.23993],[-93.52171,45.24321],[-93.52166,45.24663],[-93.52716,45.25205],[-93.53207,45.25491],[-93.54132,45.25627],[-93.55238,45.26553],[-93.55514,45.28406],[-93.55989,45.29099],[-93.56265,45.29985],[-93.56475,45.30155],[-93.57031,45.30157],[-93.57306,45.29516],[-93.58139,45.29191],[-93.61019,45.29255],[-93.62874,45.29611],[-93.66968,45.29523],[-93.67522,45.29715],[-93.68278,45.30428],[-93.68585,45.30506],[-93.69298,45.30002],[-93.7044,45.29773],[-93.72025,45.30013],[-93.73687,45.29995],[-93.75427,45.29486],[-93.76907,45.2978],[-93.78962,45.30808],[-93.80515,45.31233],[-93.82676,45.32889],[-93.83084,45.33485],[-93.86786,45.33954],[-93.88222,45.34938],[-93.88723,45.35689],[-93.88786,45.36219],[-93.88954,45.36368],[-93.90936,45.37262],[-93.91187,45.3803],[-93.91491,45.38289],[-93.92694,45.38573],[-93.93745,45.38396],[-93.94366,45.38531],[-93.95491,45.37767],[-93.97908,45.39136],[-93.98553,45.39935],[-93.99622,45.40166],[-94.00169,45.40009],[-94.00477,45.39679],[-94.00497,45.39195],[-94.00915,45.39088],[-94.01244,45.39463],[-94.00569,45.40121],[-94.00634,45.40388],[-94.01885,45.40278],[-94.02426,45.40375],[-94.03241,45.41242],[-94.04272,45.4169],[-94.04803,45.42328],[-94.05297,45.42367],[-94.05691,45.42081],[-94.0556,45.41818],[-94.05718,45.41464],[-94.06015,45.41416],[-94.06212,45.41041],[-94.06626,45.4082],[-94.06512,45.40795],[-94.06557,45.40547],[-94.06881,45.40427],[-94.06665,45.39881],[-94.0742,45.39219],[-94.07436,45.38944],[-94.0759,45.38993],[-94.07743,45.38825],[-94.07613,45.38723],[-94.07776,45.38673],[-94.07821,45.38342],[-94.08595,45.37992],[-94.08569,45.37673],[-94.08327,45.37497],[-94.08597,45.37439],[-94.08596,45.37276],[-94.08176,45.37079],[-94.0837,45.36892],[-94.08224,45.36909],[-94.08138,45.36685],[-94.0849,45.36502],[-94.08417,45.36378],[-94.08753,45.36415],[-94.0888,45.35952],[-94.09125,45.35812],[-94.09074,45.35635],[-94.09255,45.35633],[-94.09348,45.35328],[-94.09598,45.35236],[-94.09292,45.34997],[-94.09295,45.34823],[-94.08952,45.34663],[-94.09273,45.34247],[-94.09892,45.34338],[-94.1065,45.33994],[-94.11672,45.32806],[-94.15671,45.30396],[-94.16077,45.30414],[-94.1619,45.30124],[-94.17492,45.30212],[-94.17659,45.30329],[-94.17623,45.30668],[-94.1799,45.31316],[-94.18658,45.31816],[-94.19484,45.31894],[-94.20665,45.31546],[-94.20955,45.31733],[-94.2176,45.31584],[-94.22336,45.31141],[-94.23975,45.31019],[-94.24268,45.30823],[-94.25262,45.30831],[-94.25712,45.30605],[-94.2551,45.2999],[-94.26153,45.2977],[-94.2603,45.23928],[-94.25676,45.23928],[-94.25595,45.21257],[-94.25608,44.97947],[-93.76754,44.97765],[-93.76672,45.06024],[-93.76491,45.06089],[-93.76555,45.06634],[-93.76118,45.06877],[-93.76459,45.07097],[-93.75838,45.07321],[-93.75933,45.07496],[-93.76158,45.07397],[-93.7585,45.07753],[-93.7615,45.08176],[-93.75796,45.08282],[-93.75638,45.08043],[-93.74945,45.07904],[-93.73863,45.08141],[-93.73417,45.08702],[-93.72893,45.09002],[-93.72981,45.09704],[-93.72663,45.09875],[-93.72062,45.11445],[-93.70259,45.13136],[-93.70075,45.13637],[-93.68914,45.1436],[-93.68241,45.15093],[-93.67799,45.1506],[-93.66721,45.15445],[-93.66044,45.15356],[-93.64815,45.15833],[-93.63863,45.16563],[-93.63904,45.17487],[-93.65132,45.18254],[-93.65771,45.18983],[-93.65892,45.19356],[-93.65657,45.198],[-93.64699,45.19974],[-93.64574,45.20374],[-93.63775,45.21012],[-93.63458,45.20921],[-93.63235,45.20374],[-93.62849,45.20241],[-93.62339,45.20394],[-93.62622,45.20781],[-93.62505,45.20966],[-93.61803,45.20907],[-93.61266,45.21156],[-93.61136,45.20799],[-93.60785,45.21217],[-93.60451,45.21297],[-93.60193,45.21019],[-93.60197,45.20809],[-93.59695,45.20737],[-93.59273,45.21051],[-93.59433,45.21488],[-93.59269,45.21829],[-93.59064,45.21837],[-93.58948,45.21481],[-93.5869,45.21469],[-93.57635,45.2184],[-93.5695,45.21874],[-93.56273,45.22302],[-93.56058,45.22731],[-93.55732,45.22497],[-93.55269,45.22704],[-93.55232,45.22698]]]}},{"type":"Feature","id":"sherburne","properties":{"id":"sherburne","name":"Sherburne"},"geometry":{"type":"Polygon","coordinates":[[[-94.14924,45.55909],[-94.14558,45.55347],[-94.1471,45.54894],[-94.14687,45.5367],[-94.14847,45.53373],[-94.1537,45.53371],[-94.15427,45.53201],[-94.14554,45.52294],[-94.14536,45.52076],[-94.13947,45.51637],[-94.13917,45.51448],[-94.14316,45.50872],[-94.144,45.50072],[-94.14196,45.49697],[-94.142,45.49325],[-94.12534,45.48186],[-94.11515,45.47908],[-94.10658,45.47081],[-94.10102,45.46796],[-94.10086,45.45904],[-94.10303,45.45445],[-94.10215,45.45244],[-94.08179,45.44692],[-94.0787,45.44269],[-94.08098,45.43977],[-94.08047,45.43824],[-94.06938,45.4385],[-94.0654,45.43254],[-94.0522,45.43527],[-94.05025,45.43275],[-94.04952,45.42606],[-94.04435,45.41866],[-94.03241,45.41242],[-94.02606,45.40455],[-94.01885,45.40278],[-94.00634,45.40388],[-94.00569,45.40121],[-94.01216,45.39587],[-94.01086,45.39157],[-94.00559,45.39142],[-94.00477,45.39679],[-94.00292,45.39888],[-93.99622,45.40166],[-93.98553,45.39935],[-93.97908,45.39136],[-93.95491,45.37767],[-93.94481,45.38513],[-93.93745,45.38396],[-93.92694,45.38573],[-93.91853,45.38438],[-93.91254,45.38148],[-93.90936,45.37262],[-93.88786,45.36219],[-93.88723,45.35689],[-93.88222,45.34938],[-93.86786,45.33954],[-93.83084,45.33485],[-93.82676,45.32889],[-93.80515,45.31233],[-93.78962,45.30808],[-93.76956,45.29793],[-93.75877,45.29524],[-93.75268,45.2951],[-93.73687,45.29995],[-93.72025,45.30013],[-93.7044,45.29773],[-93.69298,45.30002],[-93.68585,45.30506],[-93.68278,45.30428],[-93.67522,45.29715],[-93.66968,45.29523],[-93.62874,45.29611],[-93.61019,45.29255],[-93.58139,45.29191],[-93.57306,45.29516],[-93.57031,45.30157],[-93.56475,45.30155],[-93.56265,45.29985],[-93.55989,45.29099],[-93.55514,45.28406],[-93.55195,45.265],[-93.54251,45.25697],[-93.53182,45.25481],[-93.52212,45.24672],[-93.5122,45.24569],[-93.50979,45.38486],[-93.51071,45.55878],[-93.86356,45.56024],[-94.149,45.5591],[-94.14924,45.55909]]]}},{"type":"Feature","id":"hennepin","properties":{"id":"hennepin","name":"Hennepin"},"geometry":{"type":"Polygon","coordinates":[[[-93.52073,44.86201],[-93.52017,44.80219],[-93.51164,44.80497],[-93.50318,44.80479],[-93.50113,44.80906],[-93.49839,44.81039],[-93.49152,44.80457],[-93.48316,44.80786],[-93.48039,44.80445],[-93.46269,44.80666],[-93.45674,44.80317],[-93.45069,44.80347],[-93.44395,44.8056],[-93.441,44.81181],[-93.43802,44.81308],[-93.42154,44.80719],[-93.41395,44.80765],[-93.40886,44.80597],[-93.39633,44.79709],[-93.38626,44.79814],[-93.38433,44.79656],[-93.38032,44.78532],[-93.36508,44.78916],[-93.35557,44.78553],[-93.3522,44.78998],[-93.34919,44.79135],[-93.33661,44.78638],[-93.32574,44.79267],[-93.31413,44.79248],[-93.30454,44.79451],[-93.28639,44.80136],[-93.28178,44.80613],[-93.25188,44.81148],[-93.2309,44.82749],[-93.22053,44.83106],[-93.21907,44.83225],[-93.22182,44.83774],[-93.21144,44.83975],[-93.19831,44.85817],[-93.19729,44.86012],[-93.19998,44.86551],[-93.18989,44.87154],[-93.18656,44.8761],[-93.17863,44.88034],[-93.18317,44.8861],[-93.17855,44.88835],[-93.17723,44.89394],[-93.1874,44.89513],[-93.19039,44.89799],[-93.19222,44.90438],[-93.20037,44.90963],[-93.20137,44.91977],[-93.1998,44.92704],[-93.20011,44.94151],[-93.2036,44.95099],[-93.20776,44.95304],[-93.2081,45.03575],[-93.28343,45.03537],[-93.28083,45.04357],[-93.28523,45.05847],[-93.27903,45.08017],[-93.28023,45.08877],[-93.27833,45.10337],[-93.2948,45.11493],[-93.29714,45.12697],[-93.30832,45.13795],[-93.31155,45.14379],[-93.32314,45.14717],[-93.33057,45.15304],[-93.34624,45.16017],[-93.35884,45.17497],[-93.37544,45.17867],[-93.39404,45.19068],[-93.41204,45.19817],[-93.42593,45.21474],[-93.43374,45.21807],[-93.44226,45.21637],[-93.45764,45.2202],[-93.46765,45.2258],[-93.48548,45.22569],[-93.4969,45.23427],[-93.5018,45.24173],[-93.51314,45.24598],[-93.52166,45.24663],[-93.52171,45.24321],[-93.51643,45.24174],[-93.51475,45.2395],[-93.52054,45.23766],[-93.5218,45.23248],[-93.52664,45.22897],[-93.52564,45.22497],[-93.52869,45.22244],[-93.5313,45.22285],[-93.5334,45.22561],[-93.53436,45.23094],[-93.54007,45.23105],[-93.54264,45.2326],[-93.54797,45.22666],[-93.55453,45.22693],[-93.55763,45.22498],[-93.56058,45.22731],[-93.56273,45.22302],[-93.56998,45.21853],[-93.57635,45.2184],[-93.58751,45.21465],[-93.58948,45.21481],[-93.59083,45.21853],[-93.59269,45.21829],[-93.59433,45.21488],[-93.59273,45.21051],[-93.59695,45.20737],[-93.60197,45.20809],[-93.60193,45.21019],[-93.60451,45.21297],[-93.60785,45.21217],[-93.61136,45.20799],[-93.61266,45.21156],[-93.61803,45.20907],[-93.62505,45.20966],[-93.62622,45.20781],[-93.62339,45.20394],[-93.62849,45.20241],[-93.63235,45.20374],[-93.63458,45.20921],[-93.63775,45.21012],[-93.64574,45.20374],[-93.64699,45.19974],[-93.65657,45.198],[-93.65892,45.19356],[-93.65771,45.18983],[-93.65132,45.18254],[-93.63904,45.17487],[-93.63863,45.16563],[-93.64815,45.15833],[-93.66044,45.15356],[-93.66721,45.15445],[-93.67799,45.1506],[-93.68241,45.15093],[-93.68914,45.1436],[-93.70075,45.13637],[-93.70259,45.13136],[-93.72062,45.11445],[-93.72663,45.09875],[-93.72981,45.09704],[-93.72893,45.09002],[-93.73417,45.08702],[-93.73863,45.08141],[-93.74861,45.07904],[-93.75564,45.08011],[-93.75796,45.08282],[-93.76188,45.08125],[-93.7585,45.07753],[-93.76158,45.07397],[-93.75933,45.07496],[-93.75838,45.07321],[-93.76459,45.07097],[-93.76118,45.06877],[-93.76555,45.06634],[-93.76491,45.06089],[-93.76672,45.06024],[-93.76839,44.89088],[-93.52071,44.89151],[-93.52072,44.86219],[-93.52073,44.86201]]]}},{"id":"aitkin","properties":{"id":"aitkin","name":"Aitkin"},"geometry":{"type":"Polygon","coordinates":[[[-93.05606,47.02649],[-93.06104,46.78084],[-93.06465,46.67991],[-93.06283,46.59329],[-93.05487,46.59321],[-93.05572,46.56418],[-93.05346,46.30325],[-93.054,46.1583],[-93.28326,46.15942],[-93.43187,46.15417],[-93.43037,46.16098],[-93.4297,46.18258],[-93.43075,46.24616],[-93.52887,46.24716],[-93.79633,46.24312],[-93.79853,46.24845],[-93.80426,46.2472],[-93.80875,46.24899],[-93.81076,46.25106],[-93.81025,46.41725],[-93.81222,46.5044],[-93.81083,46.53331],[-93.81153,46.58433],[-93.79888,46.58555],[-93.78571,46.58981],[-93.77803,46.58941],[-93.77846,46.65841],[-93.77494,46.91385],[-93.77536,47.03028],[-93.65484,47.02888],[-93.59181,47.02965],[-93.44482,47.02815],[-93.31675,47.02839],[-93.19115,47.02519],[-93.05606,47.02649]]]}},{"id":"beltrami","properties":{"id":"beltrami","name":"Beltrami"},"geometry":{"type":"Polygon","coordinates":[[[-95.34265,48.54017],[-95.21207,48.53997],[-95.21073,48.36594],[-94.4254,48.36751],[-94.42348,48.21385],[-94.42323,48.09137],[-94.4246,48.04875],[-94.42362,48.01978],[-94.41784,48.01985],[-94.41738,47.97674],[-94.41916,47.71554],[-94.41575,47.59369],[-94.41377,47.58654],[-94.41599,47.41182],[-94.71293,47.40948],[-94.90633,47.41062],[-94.92743,47.41175],[-95.18299,47.4126],[-95.18492,47.67335],[-95.19417,47.67335],[-95.19452,47.68789],[-95.1934,47.87239],[-95.22521,47.87676],[-95.2386,47.88033],[-95.25284,47.88634],[-95.26255,47.89443],[-95.26909,47.90277],[-95.27517,47.91473],[-95.27813,47.9273],[-95.27773,47.944],[-95.27592,47.94951],[-95.2751,47.95901],[-95.27276,47.96103],[-95.26735,47.97349],[-95.24899,48.00248],[-95.24146,48.01142],[-95.22919,48.02],[-95.59234,48.0207],[-95.59403,48.18021],[-95.59339,48.36544],[-95.60169,48.36543],[-95.60293,48.40876],[-95.60073,48.51001],[-95.60113,48.53193],[-95.60248,48.53889],[-95.34265,48.54017]]]}},{"id":"carver","properties":{"id":"carver","name":"Carver"},"geometry":{"type":"Polygon","coordinates":[[[-93.76738,44.97769],[-93.76799,44.89085],[-93.52072,44.89151],[-93.52016,44.80505],[-93.54047,44.80478],[-93.54074,44.79902],[-93.54743,44.79565],[-93.55478,44.79985],[-93.56377,44.79695],[-93.57535,44.7956],[-93.58076,44.79274],[-93.58207,44.78234],[-93.58987,44.78374],[-93.59948,44.78262],[-93.59949,44.78086],[-93.59429,44.77659],[-93.59628,44.77316],[-93.60243,44.76883],[-93.61381,44.76717],[-93.62191,44.7625],[-93.62065,44.76001],[-93.60971,44.75598],[-93.60855,44.75451],[-93.60912,44.75278],[-93.6142,44.74896],[-93.61743,44.75293],[-93.62064,44.7538],[-93.62239,44.74671],[-93.63152,44.73834],[-93.62847,44.7322],[-93.63238,44.72688],[-93.63277,44.72414],[-93.62561,44.72359],[-93.62621,44.71565],[-93.61795,44.7073],[-93.62493,44.70345],[-93.62917,44.70257],[-93.63005,44.70144],[-93.62915,44.69839],[-93.63558,44.69775],[-93.63694,44.69436],[-93.63932,44.69311],[-93.64422,44.69279],[-93.64758,44.69561],[-93.65065,44.69214],[-93.65567,44.69005],[-93.65831,44.69487],[-93.66328,44.69622],[-93.67515,44.69257],[-93.67843,44.687],[-93.69767,44.66978],[-93.71159,44.66808],[-93.72138,44.66365],[-93.72077,44.66137],[-93.71512,44.65873],[-93.71839,44.65534],[-93.72295,44.65436],[-93.72687,44.65698],[-93.73822,44.646],[-93.75951,44.64391],[-93.75979,44.6409],[-93.75355,44.63814],[-93.75549,44.6358],[-93.76106,44.63492],[-93.76348,44.63916],[-93.76836,44.64034],[-93.76819,44.67352],[-93.88884,44.67342],[-93.88867,44.71706],[-94.0105,44.71747],[-94.00999,44.89167],[-94.01256,44.89171],[-94.01236,44.97854],[-93.76738,44.97769]]]}},{"id":"chisago","properties":{"id":"chisago","name":"Chisago"},"geometry":{"type":"Polygon","coordinates":[[[-92.84101,45.73003],[-92.84937,45.72848],[-92.85131,45.72365],[-92.86369,45.72191],[-92.86925,45.71695],[-92.86884,45.71289],[-92.87191,45.70028],[-92.8701,45.69729],[-92.87544,45.68877],[-92.87903,45.66548],[-92.8824,45.65972],[-92.88544,45.64639],[-92.88935,45.64119],[-92.88686,45.63621],[-92.88798,45.62497],[-92.8826,45.61138],[-92.88652,45.59803],[-92.8862,45.59452],[-92.88318,45.58933],[-92.8849,45.58008],[-92.88408,45.57601],[-92.87063,45.56731],[-92.84607,45.56667],[-92.82211,45.56079],[-92.80225,45.56273],[-92.78506,45.56801],[-92.77382,45.56832],[-92.76514,45.56396],[-92.75811,45.55822],[-92.74641,45.55344],[-92.72708,45.54177],[-92.72468,45.5375],[-92.72642,45.53412],[-92.72776,45.5256],[-92.72642,45.51413],[-92.71392,45.50563],[-92.70719,45.49899],[-92.70085,45.49168],[-92.6915,45.47622],[-92.68251,45.4698],[-92.68006,45.46445],[-92.65589,45.4566],[-92.65311,45.45494],[-92.65088,45.45088],[-92.64646,45.43972],[-92.65007,45.42057],[-92.64963,45.41703],[-92.64661,45.41345],[-92.64835,45.41065],[-92.64816,45.40647],[-92.65049,45.40338],[-92.65033,45.39875],[-92.66395,45.39326],[-92.66982,45.38859],[-92.67536,45.38193],[-92.67852,45.37616],[-92.67834,45.37334],[-92.68759,45.36902],[-92.70252,45.35883],[-92.70407,45.35353],[-92.69948,45.34231],[-92.69891,45.33713],[-92.70312,45.3292],[-92.71033,45.32109],[-92.72723,45.30978],[-92.73707,45.30057],[-92.74153,45.29878],[-92.74439,45.29604],[-93.01955,45.29694],[-93.01852,45.3827],[-93.02255,45.50566],[-93.02197,45.55729],[-93.14196,45.55813],[-93.14206,45.73073],[-92.84101,45.73003]]]}},{"id":"dakota","properties":{"id":"dakota","name":"Dakota"},"geometry":{"type":"Polygon","coordinates":[[[-93.01967,44.89076],[-93.01517,44.87844],[-93.01374,44.87063],[-93.00936,44.86262],[-93.00859,44.85653],[-93.01191,44.83658],[-93.00508,44.81643],[-93.0064,44.8125],[-93.02214,44.79322],[-93.02087,44.78358],[-93.01685,44.77636],[-93.01247,44.77372],[-93.00464,44.77195],[-92.99291,44.77518],[-92.98379,44.77473],[-92.95636,44.76695],[-92.95,44.76741],[-92.94426,44.76943],[-92.94108,44.77214],[-92.93795,44.77767],[-92.93092,44.78114],[-92.9252,44.78048],[-92.91518,44.77572],[-92.90629,44.77421],[-92.8815,44.77493],[-92.8759,44.77173],[-92.86206,44.75482],[-92.85886,44.75303],[-92.85403,44.74725],[-92.83647,44.74739],[-92.82674,44.75061],[-92.80342,44.74653],[-92.79237,44.73936],[-92.77198,44.73207],[-92.7557,44.72324],[-92.73919,44.71804],[-92.73208,44.71434],[-92.73208,44.62949],[-92.79261,44.62972],[-92.79269,44.54324],[-92.919,44.54326],[-92.91905,44.52092],[-92.92549,44.51517],[-92.93719,44.5115],[-92.94654,44.51258],[-92.95271,44.50699],[-92.95485,44.50703],[-92.95638,44.50856],[-92.95517,44.51088],[-92.95687,44.51456],[-92.96233,44.51579],[-92.96451,44.51462],[-92.97323,44.5147],[-92.97641,44.51705],[-92.98196,44.51865],[-93.00337,44.51587],[-93.01807,44.51512],[-93.02489,44.5174],[-93.03302,44.51443],[-93.03922,44.51536],[-93.03947,44.47197],[-93.28169,44.47195],[-93.28153,44.54396],[-93.27848,44.54396],[-93.27818,44.63076],[-93.31874,44.63058],[-93.31835,44.71755],[-93.32849,44.71756],[-93.32962,44.79123],[-93.32582,44.79277],[-93.31413,44.79247],[-93.30454,44.79451],[-93.2864,44.80135],[-93.28178,44.80612],[-93.27247,44.80687],[-93.25188,44.81147],[-93.2309,44.82747],[-93.22054,44.83105],[-93.2194,44.83204],[-93.22208,44.83623],[-93.2218,44.83826],[-93.21144,44.83985],[-93.20777,44.84362],[-93.20326,44.85264],[-93.19831,44.85815],[-93.19789,44.86192],[-93.20076,44.86487],[-93.19154,44.87039],[-93.18623,44.87635],[-93.17878,44.88016],[-93.17911,44.88218],[-93.18332,44.88579],[-93.18308,44.88706],[-93.17896,44.88835],[-93.1701,44.88785],[-93.1534,44.89326],[-93.13574,44.9073],[-93.13258,44.91244],[-93.13167,44.91648],[-93.12883,44.91966],[-93.096,44.91969],[-93.09604,44.92329],[-93.09094,44.92327],[-93.09092,44.91968],[-93.04725,44.91951],[-93.04445,44.91515],[-93.04476,44.91103],[-93.04001,44.90272],[-93.03091,44.89671],[-93.02075,44.8928],[-93.01967,44.89076]]]}},{"id":"koochiching","properties":{"id":"koochiching","name":"Koochiching"},"geometry":{"type":"Polygon","coordinates":[[[-93.08846,48.62771],[-93.09242,48.4146],[-93.09365,48.4146],[-93.09397,48.4023],[-93.09534,48.31525],[-93.09489,48.24256],[-93.09772,48.24256],[-93.09717,48.10568],[-93.09649,48.06777],[-93.08913,48.06779],[-93.08874,48.00743],[-93.08735,47.99301],[-93.08806,47.97856],[-93.08093,47.97856],[-93.0809,47.89217],[-93.44433,47.89455],[-93.57294,47.89814],[-93.72492,47.89744],[-93.725,47.89882],[-93.77581,47.89894],[-93.7762,47.84635],[-94.03769,47.84764],[-94.16589,47.84602],[-94.4187,47.84593],[-94.41752,47.91751],[-94.41784,48.01985],[-94.42362,48.01978],[-94.4246,48.04875],[-94.42323,48.09137],[-94.42372,48.25043],[-94.4254,48.36751],[-94.42868,48.36755],[-94.43032,48.49999],[-94.4289,48.58424],[-94.42999,48.70114],[-94.41892,48.71026],[-94.38408,48.71183],[-94.3688,48.70648],[-94.34315,48.70341],[-94.32876,48.70446],[-94.30883,48.71028],[-94.28294,48.70562],[-94.27458,48.69988],[-94.2645,48.699],[-94.2611,48.69661],[-94.25298,48.68635],[-94.25075,48.67813],[-94.25468,48.66145],[-94.25096,48.65691],[-94.24452,48.65347],[-94.23356,48.65231],[-94.22421,48.64947],[-94.19967,48.65095],[-94.18865,48.65039],[-94.16783,48.64815],[-94.1575,48.64573],[-94.13917,48.646],[-94.12608,48.64435],[-94.11003,48.64428],[-94.09995,48.64587],[-94.09127,48.64366],[-94.07675,48.64418],[-94.06589,48.64615],[-94.06429,48.64373],[-94.04325,48.64347],[-94.03562,48.64105],[-94.00697,48.64329],[-93.97778,48.63848],[-93.9597,48.63718],[-93.95303,48.63414],[-93.93407,48.63264],[-93.91697,48.63286],[-93.9135,48.63524],[-93.8949,48.63237],[-93.84436,48.63023],[-93.83345,48.6256],[-93.82931,48.61761],[-93.82144,48.60917],[-93.81753,48.59698],[-93.81309,48.58798],[-93.80636,48.57952],[-93.80417,48.57022],[-93.80806,48.55686],[-93.812,48.5503],[-93.81026,48.54443],[-93.811,48.54093],[-93.81802,48.53491],[-93.8185,48.53142],[-93.81113,48.52466],[-93.80303,48.52197],[-93.79338,48.51632],[-93.788,48.51586],[-93.7535,48.51574],[-93.73907,48.51848],[-93.72062,48.51761],[-93.71086,48.51856],[-93.69305,48.5152],[-93.67785,48.51681],[-93.65932,48.51642],[-93.64337,48.51896],[-93.63954,48.52179],[-93.63577,48.52842],[-93.62847,48.53188],[-93.62569,48.53144],[-93.62119,48.52636],[-93.61668,48.52371],[-93.61227,48.52241],[-93.60519,48.52309],[-93.59628,48.52863],[-93.59014,48.53041],[-93.58105,48.52709],[-93.57621,48.527],[-93.56027,48.52965],[-93.54251,48.52999],[-93.52692,48.53402],[-93.51717,48.5348],[-93.5011,48.54134],[-93.46739,48.54646],[-93.46258,48.54974],[-93.4597,48.55368],[-93.45769,48.55973],[-93.45754,48.56714],[-93.46193,48.5731],[-93.46718,48.58841],[-93.46548,48.59164],[-93.46272,48.5927],[-93.43985,48.59369],[-93.43479,48.59538],[-93.42985,48.59966],[-93.42268,48.60318],[-93.41931,48.60357],[-93.40567,48.60983],[-93.4035,48.60998],[-93.40296,48.60767],[-93.40137,48.60781],[-93.39864,48.60441],[-93.39539,48.6038],[-93.38374,48.60596],[-93.37146,48.60586],[-93.36729,48.60812],[-93.362,48.61403],[-93.35509,48.61141],[-93.3527,48.61349],[-93.35336,48.61495],[-93.34867,48.62646],[-93.25466,48.64282],[-93.20754,48.64251],[-93.18401,48.62819],[-93.17838,48.62327],[-93.08846,48.62771]]]}},{"id":"morrison","properties":{"id":"morrison","name":"Morrison"},"geometry":{"type":"Polygon","coordinates":[[[-94.34165,46.27775],[-94.33771,46.27493],[-94.33913,46.2709],[-94.341,46.26925],[-94.35045,46.2673],[-94.35465,46.26432],[-94.35554,46.26279],[-94.35335,46.25867],[-94.3555,46.25476],[-94.36343,46.25207],[-94.3749,46.24219],[-94.38773,46.23886],[-94.38952,46.23651],[-94.38927,46.23264],[-94.39434,46.22911],[-94.39524,46.21006],[-94.38762,46.2036],[-94.38527,46.19685],[-94.37426,46.1895],[-94.36557,46.17888],[-94.36648,46.17703],[-94.37178,46.17421],[-94.37094,46.16407],[-94.37471,46.15905],[-94.37459,46.15714],[-94.27092,46.15742],[-94.14543,46.15597],[-93.81026,46.15656],[-93.81035,45.98304],[-93.7689,45.98259],[-93.76826,45.90965],[-93.76359,45.82215],[-93.99052,45.82428],[-94.35286,45.82204],[-94.35079,45.8179],[-94.34458,45.81133],[-94.3282,45.79907],[-94.32328,45.79774],[-94.31667,45.8011],[-94.31376,45.80038],[-94.31305,45.79212],[-94.30736,45.78649],[-94.29462,45.78336],[-94.2893,45.78077],[-94.28292,45.77996],[-94.27172,45.77506],[-94.45038,45.7754],[-94.64395,45.77397],[-94.64362,45.93287],[-94.64883,45.93292],[-94.64765,46.28248],[-94.65295,46.28243],[-94.65338,46.34872],[-94.64414,46.3418],[-94.63642,46.34131],[-94.62228,46.32649],[-94.61819,46.32784],[-94.61674,46.32523],[-94.61266,46.32473],[-94.60834,46.32896],[-94.60415,46.33009],[-94.59962,46.32682],[-94.58575,46.32453],[-94.57388,46.31607],[-94.56011,46.31219],[-94.55686,46.30718],[-94.54992,46.30752],[-94.54232,46.30342],[-94.53488,46.30232],[-94.52201,46.30786],[-94.51714,46.30896],[-94.51196,46.30847],[-94.50732,46.31312],[-94.49768,46.31512],[-94.48959,46.31385],[-94.48447,46.31554],[-94.48236,46.31707],[-94.48108,46.32147],[-94.47571,46.32026],[-94.46756,46.32264],[-94.46043,46.33123],[-94.45693,46.33109],[-94.45306,46.32789],[-94.44556,46.33172],[-94.43504,46.33046],[-94.43022,46.33243],[-94.42533,46.33204],[-94.42387,46.33107],[-94.42354,46.32789],[-94.40295,46.32176],[-94.40004,46.31983],[-94.39974,46.31608],[-94.39781,46.31392],[-94.38755,46.31124],[-94.38731,46.3087],[-94.39136,46.30576],[-94.39,46.30344],[-94.38472,46.30493],[-94.38185,46.30962],[-94.37192,46.29727],[-94.36242,46.30018],[-94.35031,46.29533],[-94.34361,46.28704],[-94.34895,46.28248],[-94.35052,46.27925],[-94.34604,46.27657],[-94.34165,46.27775]]]}},{"id":"olmsted","properties":{"id":"olmsted","name":"Olmsted"},"geometry":{"type":"Polygon","coordinates":[[[-92.55091,44.19489],[-92.31892,44.19408],[-92.3191,44.1078],[-92.07922,44.10681],[-92.07933,43.84723],[-92.4489,43.84834],[-92.44905,43.83417],[-92.68932,43.83384],[-92.68952,43.84858],[-92.67853,43.8485],[-92.67877,44.19556],[-92.55091,44.19489]]]}},{"id":"ramsey","properties":{"id":"ramsey","name":"Ramsey"},"geometry":{"type":"Polygon","coordinates":[[[-93.02046,45.12384],[-92.98463,45.12375],[-92.9842,44.89082],[-93.01967,44.89076],[-93.02075,44.8928],[-93.03091,44.89671],[-93.04001,44.90272],[-93.04476,44.91103],[-93.04445,44.91515],[-93.04725,44.91951],[-93.09092,44.91968],[-93.09094,44.92327],[-93.09604,44.92329],[-93.096,44.91969],[-93.12883,44.91966],[-93.13167,44.91648],[-93.13258,44.91244],[-93.13574,44.9073],[-93.15321,44.89337],[-93.17042,44.88778],[-93.17854,44.88836],[-93.17691,44.89368],[-93.18843,44.89571],[-93.19117,44.89947],[-93.19168,44.90364],[-93.19894,44.90846],[-93.20117,44.91228],[-93.2001,44.92864],[-93.20108,44.94593],[-93.20306,44.95023],[-93.20773,44.95303],[-93.2081,45.03576],[-93.22694,45.03568],[-93.22769,45.12453],[-93.02046,45.12384]]]}},{"id":"scott","properties":{"id":"scott","name":"Scott"},"geometry":{"type":"Polygon","coordinates":[[[-93.32962,44.79123],[-93.32849,44.71756],[-93.31835,44.71755],[-93.31874,44.63058],[-93.27818,44.63076],[-93.27848,44.54396],[-93.91073,44.54322],[-93.91172,44.54582],[-93.91094,44.54783],[-93.90356,44.55273],[-93.89974,44.55221],[-93.89766,44.55049],[-93.89861,44.54384],[-93.89177,44.54585],[-93.89134,44.55039],[-93.89282,44.55307],[-93.90127,44.55574],[-93.89785,44.56223],[-93.89147,44.56628],[-93.89149,44.56736],[-93.89746,44.56985],[-93.90094,44.56891],[-93.9039,44.56622],[-93.90109,44.57297],[-93.89416,44.5751],[-93.89512,44.57813],[-93.9001,44.58038],[-93.8981,44.58172],[-93.89591,44.58132],[-93.8929,44.58387],[-93.89308,44.58523],[-93.89929,44.58647],[-93.90221,44.58514],[-93.90392,44.58734],[-93.89496,44.59065],[-93.88966,44.59707],[-93.88662,44.59708],[-93.8854,44.59527],[-93.88298,44.59612],[-93.88105,44.59823],[-93.88054,44.6024],[-93.87476,44.60029],[-93.87421,44.6024],[-93.87896,44.60505],[-93.87797,44.60652],[-93.87083,44.60643],[-93.86769,44.60321],[-93.86106,44.606],[-93.86846,44.60667],[-93.86968,44.60806],[-93.86843,44.61053],[-93.866,44.61166],[-93.86312,44.60844],[-93.8604,44.60861],[-93.85981,44.61115],[-93.85688,44.61297],[-93.85434,44.61812],[-93.8555,44.62001],[-93.85843,44.61925],[-93.8585,44.62086],[-93.84821,44.62256],[-93.84553,44.62041],[-93.84459,44.62172],[-93.84653,44.62444],[-93.84442,44.62577],[-93.83974,44.62361],[-93.83751,44.61916],[-93.83483,44.61946],[-93.81781,44.62904],[-93.81612,44.63282],[-93.81421,44.634],[-93.80991,44.63281],[-93.80114,44.63539],[-93.79577,44.6351],[-93.79181,44.63274],[-93.791,44.63011],[-93.78855,44.62966],[-93.78556,44.63196],[-93.77978,44.63298],[-93.77419,44.63839],[-93.77175,44.63792],[-93.76996,44.63495],[-93.77267,44.63074],[-93.76673,44.63331],[-93.76765,44.63573],[-93.76655,44.63593],[-93.76569,44.63389],[-93.7639,44.63459],[-93.7676,44.63865],[-93.77244,44.6383],[-93.77282,44.63917],[-93.77103,44.63991],[-93.76348,44.63916],[-93.76106,44.63492],[-93.75478,44.63604],[-93.75355,44.63814],[-93.75979,44.6409],[-93.75951,44.64391],[-93.73822,44.646],[-93.72687,44.65698],[-93.72295,44.65436],[-93.71839,44.65534],[-93.71512,44.65873],[-93.72077,44.66137],[-93.72138,44.66365],[-93.71159,44.66808],[-93.69767,44.66978],[-93.67843,44.687],[-93.67515,44.69257],[-93.66569,44.69587],[-93.66151,44.69611],[-93.65831,44.69487],[-93.65687,44.69094],[-93.65521,44.69006],[-93.65065,44.69214],[-93.64804,44.69546],[-93.64422,44.69279],[-93.63965,44.69304],[-93.63694,44.69436],[-93.63558,44.69775],[-93.62915,44.69839],[-93.63005,44.70144],[-93.62917,44.70257],[-93.62493,44.70345],[-93.61777,44.70783],[-93.62621,44.71565],[-93.62561,44.72359],[-93.63277,44.72414],[-93.63238,44.72688],[-93.62847,44.7322],[-93.63141,44.73875],[-93.62239,44.74671],[-93.62064,44.7538],[-93.61847,44.7537],[-93.61387,44.74894],[-93.60855,44.75382],[-93.61019,44.75631],[-93.62113,44.76027],[-93.62191,44.7625],[-93.61381,44.76717],[-93.60243,44.76883],[-93.59628,44.77316],[-93.59429,44.77659],[-93.59974,44.78117],[-93.59912,44.78282],[-93.58987,44.78374],[-93.58207,44.78234],[-93.58106,44.79204],[-93.57762,44.79485],[-93.56292,44.79714],[-93.55495,44.79984],[-93.54743,44.79565],[-93.54074,44.79902],[-93.54047,44.80478],[-93.52016,44.80505],[-93.52006,44.80242],[-93.51164,44.80497],[-93.50318,44.80479],[-93.50112,44.80907],[-93.49875,44.81038],[-93.49612,44.80955],[-93.49152,44.80457],[-93.48323,44.80786],[-93.48039,44.80445],[-93.46269,44.80666],[-93.45674,44.80317],[-93.45074,44.80346],[-93.44395,44.8056],[-93.441,44.81181],[-93.43816,44.81308],[-93.42154,44.80719],[-93.41395,44.80765],[-93.40886,44.80597],[-93.40364,44.80349],[-93.39633,44.79709],[-93.38896,44.79873],[-93.38626,44.79814],[-93.38433,44.79657],[-93.38161,44.78679],[-93.37986,44.78521],[-93.36508,44.78916],[-93.35557,44.78553],[-93.3522,44.78998],[-93.3492,44.79134],[-93.34172,44.78749],[-93.33661,44.78638],[-93.32962,44.79123]]]}},{"id":"washington","properties":{"id":"washington","name":"Washington"},"geometry":{"type":"Polygon","coordinates":[[[-93.01955,45.29694],[-92.74435,45.29601],[-92.75978,45.29119],[-92.76269,45.28835],[-92.76085,45.27854],[-92.7537,45.27015],[-92.75224,45.26557],[-92.7537,45.25978],[-92.75957,45.25415],[-92.76063,45.25134],[-92.75788,45.23867],[-92.7575,45.22949],[-92.75197,45.21887],[-92.75529,45.21189],[-92.76365,45.20561],[-92.76768,45.19204],[-92.76576,45.18338],[-92.75406,45.1757],[-92.75232,45.1734],[-92.75285,45.16692],[-92.74991,45.16366],[-92.75054,45.15896],[-92.74823,45.15554],[-92.74966,45.15363],[-92.74914,45.14814],[-92.75217,45.14171],[-92.74943,45.13732],[-92.74588,45.12383],[-92.73944,45.11574],[-92.74658,45.10742],[-92.76074,45.09908],[-92.7748,45.08825],[-92.78859,45.08119],[-92.8014,45.06909],[-92.80315,45.0645],[-92.80269,45.05825],[-92.79841,45.05187],[-92.78814,45.04413],[-92.77249,45.03582],[-92.7656,45.03051],[-92.76207,45.02564],[-92.76195,45.02134],[-92.76953,45.00704],[-92.7711,44.99972],[-92.76889,44.98873],[-92.77025,44.97998],[-92.76977,44.97435],[-92.768,44.96874],[-92.76196,44.96585],[-92.75551,44.9568],[-92.75067,44.93897],[-92.7589,44.90993],[-92.76081,44.90737],[-92.77293,44.90179],[-92.77513,44.89726],[-92.77493,44.89047],[-92.76374,44.87381],[-92.77031,44.86041],[-92.76569,44.84264],[-92.76621,44.83407],[-92.77208,44.82807],[-92.77231,44.82289],[-92.77366,44.82054],[-92.78183,44.8121],[-92.78335,44.79742],[-92.78507,44.793],[-92.79038,44.78678],[-92.80018,44.77858],[-92.80577,44.76949],[-92.80936,44.75149],[-92.80604,44.7501],[-92.80343,44.74651],[-92.82674,44.75061],[-92.83647,44.74739],[-92.85392,44.74721],[-92.85886,44.75303],[-92.86206,44.75482],[-92.8759,44.77173],[-92.88202,44.77502],[-92.90629,44.77421],[-92.91518,44.77572],[-92.9252,44.78048],[-92.93092,44.78114],[-92.93795,44.77767],[-92.94108,44.77214],[-92.94426,44.76943],[-92.95019,44.76738],[-92.95721,44.76698],[-92.9882,44.77529],[-92.99343,44.77509],[-93.00307,44.77207],[-93.00825,44.77244],[-93.01685,44.77636],[-93.02086,44.78356],[-93.02182,44.79406],[-93.0065,44.81237],[-93.00508,44.81629],[-93.01191,44.83658],[-93.00859,44.85653],[-93.00936,44.86262],[-93.01374,44.87063],[-93.01517,44.87844],[-93.01967,44.89076],[-92.9842,44.89082],[-92.98463,45.12375],[-93.02046,45.12384],[-93.01955,45.29694]]]}}]}